KUIPER-00008            
1 63724U 25088A   25323.05522118  .00004078  00000+0  34429-3 0  9997
2 63724  51.8905 231.3170 0011438  94.0396 266.1883 15.00097665 31464
KUIPER-00009            
1 63725U 25088B   25323.02760838  .00003108  00000+0  43187-3 0  9992
2 63725  51.9019 235.8941 0013392  91.6820 268.5676 14.80381494 31394
KUIPER-00010            
1 63726U 25088C   25322.95599173  .00003129  00000+0  43577-3 0  9992
2 63726  51.9009 212.7170 0012429 133.5505 226.6492 14.80261659 31333
KUIPER-00011            
1 63727U 25088D   25322.98425371 -.00001123  00000+0 -11760-3 0  9997
2 63727  51.8989 220.1968 0014678 106.6676 253.5899 14.79932824 31366
KUIPER-00012            
1 63728U 25088E   25323.66670139  .00017065  00000+0  17761-2 0  9994
2 63728  51.8941 200.4189 0009687 119.6341 152.4517 14.89886249  5688
KUIPER-00013            
1 63729U 25088F   25323.03296295  .00011575  00000+0  15434-2 0  9998
2 63729  51.9018 237.4054 0008534  25.4534 334.6848 14.79953179 31185
KUIPER-00014            
1 63730U 25088G   25323.50400144  .00006030  00000+0  81896-3 0  9998
2 63730  51.9020 236.2922 0009649  86.5527 273.6539 14.79936524 31059
KUIPER-00015            
1 63731U 25088H   25323.50715453  .00005757  00000+0  74990-3 0  9993
2 63731  51.8997 247.5861 0011039  74.5480 285.6702 14.81773349 31355
