<?xml version="1.0" encoding="UTF-8"?>
<ndm xmlns:xsi="http://www.w3.org/2001/XMLSchema-instance" xsi:noNamespaceSchemaLocation="https://sanaregistry.org/r/ndmxml_unqualified/ndmxml-2.0.0-master-2.0.xsd">
<omm id="CCSDS_OMM_VERS" version="2.0">
<header><CREATION_DATE/><ORIGINATOR/></header><body><segment><metadata><OBJECT_NAME>KUIPER-00008</OBJECT_NAME><OBJECT_ID>2025-088A</OBJECT_ID><CENTER_NAME>EARTH</CENTER_NAME><REF_FRAME>TEME</REF_FRAME><TIME_SYSTEM>UTC</TIME_SYSTEM><MEAN_ELEMENT_THEORY>SGP4</MEAN_ELEMENT_THEORY></metadata><data><meanElements><EPOCH>2025-11-19T01:19:31.109952</EPOCH><MEAN_MOTION>15.00097665</MEAN_MOTION><ECCENTRICITY>.00114384</ECCENTRICITY><INCLINATION>51.8905</INCLINATION><RA_OF_ASC_NODE>231.3170</RA_OF_ASC_NODE><ARG_OF_PERICENTER>94.0396</ARG_OF_PERICENTER><MEAN_ANOMALY>266.1883</MEAN_ANOMALY></meanElements><tleParameters><EPHEMERIS_TYPE>0</EPHEMERIS_TYPE><CLASSIFICATION_TYPE>U</CLASSIFICATION_TYPE><NORAD_CAT_ID>63724</NORAD_CAT_ID><ELEMENT_SET_NO>999</ELEMENT_SET_NO><REV_AT_EPOCH>3146</REV_AT_EPOCH><BSTAR>.34428703E-3</BSTAR><MEAN_MOTION_DOT>.4078E-4</MEAN_MOTION_DOT><MEAN_MOTION_DDOT>0</MEAN_MOTION_DDOT></tleParameters></data></segment></body></omm>
<omm id="CCSDS_OMM_VERS" version="2.0">
<header><CREATION_DATE/><ORIGINATOR/></header><body><segment><metadata><OBJECT_NAME>KUIPER-00009</OBJECT_NAME><OBJECT_ID>2025-088B</OBJECT_ID><CENTER_NAME>EARTH</CENTER_NAME><REF_FRAME>TEME</REF_FRAME><TIME_SYSTEM>UTC</TIME_SYSTEM><MEAN_ELEMENT_THEORY>SGP4</MEAN_ELEMENT_THEORY></metadata><data><meanElements><EPOCH>2025-11-19T00:39:45.364032</EPOCH><MEAN_MOTION>14.80381494</MEAN_MOTION><ECCENTRICITY>.0013392</ECCENTRICITY><INCLINATION>51.9019</INCLINATION><RA_OF_ASC_NODE>235.8941</RA_OF_ASC_NODE><ARG_OF_PERICENTER>91.6820</ARG_OF_PERICENTER><MEAN_ANOMALY>268.5676</MEAN_ANOMALY></meanElements><tleParameters><EPHEMERIS_TYPE>0</EPHEMERIS_TYPE><CLASSIFICATION_TYPE>U</CLASSIFICATION_TYPE><NORAD_CAT_ID>63725</NORAD_CAT_ID><ELEMENT_SET_NO>999</ELEMENT_SET_NO><REV_AT_EPOCH>3139</REV_AT_EPOCH><BSTAR>.43187289E-3</BSTAR><MEAN_MOTION_DOT>.3108E-4</MEAN_MOTION_DOT><MEAN_MOTION_DDOT>0</MEAN_MOTION_DDOT></tleParameters></data></segment></body></omm>
<omm id="CCSDS_OMM_VERS" version="2.0">
<header><CREATION_DATE/><ORIGINATOR/></header><body><segment><metadata><OBJECT_NAME>KUIPER-00010</OBJECT_NAME><OBJECT_ID>2025-088C</OBJECT_ID><CENTER_NAME>EARTH</CENTER_NAME><REF_FRAME>TEME</REF_FRAME><TIME_SYSTEM>UTC</TIME_SYSTEM><MEAN_ELEMENT_THEORY>SGP4</MEAN_ELEMENT_THEORY></metadata><data><meanElements><EPOCH>2025-11-18T22:56:37.685472</EPOCH><MEAN_MOTION>14.80261659</MEAN_MOTION><ECCENTRICITY>.00124299</ECCENTRICITY><INCLINATION>51.9009</INCLINATION><RA_OF_ASC_NODE>212.7170</RA_OF_ASC_NODE><ARG_OF_PERICENTER>133.5505</ARG_OF_PERICENTER><MEAN_ANOMALY>226.6492</MEAN_ANOMALY></meanElements><tleParameters><EPHEMERIS_TYPE>0</EPHEMERIS_TYPE><CLASSIFICATION_TYPE>U</CLASSIFICATION_TYPE><NORAD_CAT_ID>63726</NORAD_CAT_ID><ELEMENT_SET_NO>999</ELEMENT_SET_NO><REV_AT_EPOCH>3133</REV_AT_EPOCH><BSTAR>.43576906E-3</BSTAR><MEAN_MOTION_DOT>.3129E-4</MEAN_MOTION_DOT><MEAN_MOTION_DDOT>0</MEAN_MOTION_DDOT></tleParameters></data></segment></body></omm>
<omm id="CCSDS_OMM_VERS" version="2.0">
<header><CREATION_DATE/><ORIGINATOR/></header><body><segment><metadata><OBJECT_NAME>KUIPER-00011</OBJECT_NAME><OBJECT_ID>2025-088D</OBJECT_ID><CENTER_NAME>EARTH</CENTER_NAME><REF_FRAME>TEME</REF_FRAME><TIME_SYSTEM>UTC</TIME_SYSTEM><MEAN_ELEMENT_THEORY>SGP4</MEAN_ELEMENT_THEORY></metadata><data><meanElements><EPOCH>2025-11-18T23:37:19.520544</EPOCH><MEAN_MOTION>14.79932824</MEAN_MOTION><ECCENTRICITY>.00146787</ECCENTRICITY><INCLINATION>51.8989</INCLINATION><RA_OF_ASC_NODE>220.1968</RA_OF_ASC_NODE><ARG_OF_PERICENTER>106.6676</ARG_OF_PERICENTER><MEAN_ANOMALY>253.5899</MEAN_ANOMALY></meanElements><tleParameters><EPHEMERIS_TYPE>0</EPHEMERIS_TYPE><CLASSIFICATION_TYPE>U</CLASSIFICATION_TYPE><NORAD_CAT_ID>63727</NORAD_CAT_ID><ELEMENT_SET_NO>999</ELEMENT_SET_NO><REV_AT_EPOCH>3136</REV_AT_EPOCH><BSTAR>-.1175998E-3</BSTAR><MEAN_MOTION_DOT>-.1123E-4</MEAN_MOTION_DOT><MEAN_MOTION_DDOT>0</MEAN_MOTION_DDOT></tleParameters></data></segment></body></omm>
<omm id="CCSDS_OMM_VERS" version="2.0">
<header><CREATION_DATE/><ORIGINATOR/></header><body><segment><metadata><OBJECT_NAME>KUIPER-00012</OBJECT_NAME><OBJECT_ID>2025-088E</OBJECT_ID><CENTER_NAME>EARTH</CENTER_NAME><REF_FRAME>TEME</REF_FRAME><TIME_SYSTEM>UTC</TIME_SYSTEM><MEAN_ELEMENT_THEORY>SGP4</MEAN_ELEMENT_THEORY></metadata><data><meanElements><EPOCH>2025-11-19T16:00:03.000096</EPOCH><MEAN_MOTION>14.89886249</MEAN_MOTION><ECCENTRICITY>.00096876</ECCENTRICITY><INCLINATION>51.8941</INCLINATION><RA_OF_ASC_NODE>200.4189</RA_OF_ASC_NODE><ARG_OF_PERICENTER>119.6341</ARG_OF_PERICENTER><MEAN_ANOMALY>152.4517</MEAN_ANOMALY></meanElements><tleParameters><EPHEMERIS_TYPE>0</EPHEMERIS_TYPE><CLASSIFICATION_TYPE>U</CLASSIFICATION_TYPE><NORAD_CAT_ID>63728</NORAD_CAT_ID><ELEMENT_SET_NO>999</ELEMENT_SET_NO><REV_AT_EPOCH>568</REV_AT_EPOCH><BSTAR>.17761353E-2</BSTAR><MEAN_MOTION_DOT>.17065E-3</MEAN_MOTION_DOT><MEAN_MOTION_DDOT>0</MEAN_MOTION_DDOT></tleParameters></data></segment></body></omm>
<omm id="CCSDS_OMM_VERS" version="2.0">
<header><CREATION_DATE/><ORIGINATOR/></header><body><segment><metadata><OBJECT_NAME>KUIPER-00013</OBJECT_NAME><OBJECT_ID>2025-088F</OBJECT_ID><CENTER_NAME>EARTH</CENTER_NAME><REF_FRAME>TEME</REF_FRAME><TIME_SYSTEM>UTC</TIME_SYSTEM><MEAN_ELEMENT_THEORY>SGP4</MEAN_ELEMENT_THEORY></metadata><data><meanElements><EPOCH>2025-11-19T00:47:27.998880</EPOCH><MEAN_MOTION>14.79953179</MEAN_MOTION><ECCENTRICITY>.00085347</ECCENTRICITY><INCLINATION>51.9018</INCLINATION><RA_OF_ASC_NODE>237.4054</RA_OF_ASC_NODE><ARG_OF_PERICENTER>25.4534</ARG_OF_PERICENTER><MEAN_ANOMALY>334.6848</MEAN_ANOMALY></meanElements><tleParameters><EPHEMERIS_TYPE>0</EPHEMERIS_TYPE><CLASSIFICATION_TYPE>U</CLASSIFICATION_TYPE><NORAD_CAT_ID>63729</NORAD_CAT_ID><ELEMENT_SET_NO>999</ELEMENT_SET_NO><REV_AT_EPOCH>3118</REV_AT_EPOCH><BSTAR>.15433839E-2</BSTAR><MEAN_MOTION_DOT>.11575E-3</MEAN_MOTION_DOT><MEAN_MOTION_DDOT>0</MEAN_MOTION_DDOT></tleParameters></data></segment></body></omm>
<omm id="CCSDS_OMM_VERS" version="2.0">
<header><CREATION_DATE/><ORIGINATOR/></header><body><segment><metadata><OBJECT_NAME>KUIPER-00014</OBJECT_NAME><OBJECT_ID>2025-088G</OBJECT_ID><CENTER_NAME>EARTH</CENTER_NAME><REF_FRAME>TEME</REF_FRAME><TIME_SYSTEM>UTC</TIME_SYSTEM><MEAN_ELEMENT_THEORY>SGP4</MEAN_ELEMENT_THEORY></metadata><data><meanElements><EPOCH>2025-11-19T12:05:45.724416</EPOCH><MEAN_MOTION>14.79936524</MEAN_MOTION><ECCENTRICITY>.00096496</ECCENTRICITY><INCLINATION>51.9020</INCLINATION><RA_OF_ASC_NODE>236.2922</RA_OF_ASC_NODE><ARG_OF_PERICENTER>86.5527</ARG_OF_PERICENTER><MEAN_ANOMALY>273.6539</MEAN_ANOMALY></meanElements><tleParameters><EPHEMERIS_TYPE>0</EPHEMERIS_TYPE><CLASSIFICATION_TYPE>U</CLASSIFICATION_TYPE><NORAD_CAT_ID>63730</NORAD_CAT_ID><ELEMENT_SET_NO>999</ELEMENT_SET_NO><REV_AT_EPOCH>3105</REV_AT_EPOCH><BSTAR>.8189615E-3</BSTAR><MEAN_MOTION_DOT>.603E-4</MEAN_MOTION_DOT><MEAN_MOTION_DDOT>0</MEAN_MOTION_DDOT></tleParameters></data></segment></body></omm>
<omm id="CCSDS_OMM_VERS" version="2.0">
<header><CREATION_DATE/><ORIGINATOR/></header><body><segment><metadata><OBJECT_NAME>KUIPER-00015</OBJECT_NAME><OBJECT_ID>2025-088H</OBJECT_ID><CENTER_NAME>EARTH</CENTER_NAME><REF_FRAME>TEME</REF_FRAME><TIME_SYSTEM>UTC</TIME_SYSTEM><MEAN_ELEMENT_THEORY>SGP4</MEAN_ELEMENT_THEORY></metadata><data><meanElements><EPOCH>2025-11-19T12:10:18.151392</EPOCH><MEAN_MOTION>14.81773349</MEAN_MOTION><ECCENTRICITY>.00110397</ECCENTRICITY><INCLINATION>51.8997</INCLINATION><RA_OF_ASC_NODE>247.5861</RA_OF_ASC_NODE><ARG_OF_PERICENTER>74.5480</ARG_OF_PERICENTER><MEAN_ANOMALY>285.6702</MEAN_ANOMALY></meanElements><tleParameters><EPHEMERIS_TYPE>0</EPHEMERIS_TYPE><CLASSIFICATION_TYPE>U</CLASSIFICATION_TYPE><NORAD_CAT_ID>63731</NORAD_CAT_ID><ELEMENT_SET_NO>999</ELEMENT_SET_NO><REV_AT_EPOCH>3135</REV_AT_EPOCH><BSTAR>.74989562E-3</BSTAR><MEAN_MOTION_DOT>.5757E-4</MEAN_MOTION_DOT><MEAN_MOTION_DDOT>0</MEAN_MOTION_DDOT></tleParameters></data></segment></body></omm>

</ndm>
